{
  "type": "FeatureCollection",
  "features": [
    {
      "type": "Feature",
      "properties": {
        "norad_id": 34478,
        "name": "COSMOS 2251 DEB",
        "group": "cosmos-2251-debris",
        "lat": -60.77419867412876,
        "lon": -131.36609863144326,
        "alt_km": 526.1192333167655,
        "timestamp": "2025-12-07T09:35:10.183633+00:00",
        "meta_object_name": "COSMOS 2251 DEB",
        "meta_object_id": "1993-036TX",
        "meta_epoch": "2025-12-06T07:34:22.683648",
        "meta_mean_motion": 15.07227835,
        "meta_eccentricity": 0.00361382,
        "meta_inclination": 74.0403,
        "meta_ra_of_asc_node": 20.0951,
        "meta_arg_of_pericenter": 242.7899,
        "meta_mean_anomaly": 243.3631,
        "meta_ephemeris_type": 0,
        "meta_classification_type": "U",
        "meta_norad_cat_id": 34478,
        "meta_element_set_no": 999,
        "meta_rev_at_epoch": 88876,
        "meta_bstar": 0.004688192,
        "meta_mean_motion_dot": 0.00072386,
        "meta_mean_motion_ddot": 0,
        "tle_line1": "1 34478U 93036TX  25340.31554032  .00072386  00000+0  46882-2 0  9999",
        "tle_line2": "2 34478  74.0403  20.0951 0036138 242.7899 243.3631 15.07227835888764"
      },
      "geometry": {
        "type": "Point",
        "coordinates": [
          -131.36609863144326,
          -60.77419867412876
        ]
      }
    },
    {
      "type": "Feature",
      "properties": {
        "norad_id": 34481,
        "name": "COSMOS 2251 DEB",
        "group": "cosmos-2251-debris",
        "lat": -21.842795505164,
        "lon": -110.14607236299123,
        "alt_km": 747.0166916755852,
        "timestamp": "2025-12-07T09:35:10.183643+00:00",
        "meta_object_name": "COSMOS 2251 DEB",
        "meta_object_id": "1993-036UA",
        "meta_epoch": "2025-12-06T16:35:23.898912",
        "meta_mean_motion": 14.32514558,
        "meta_eccentricity": 0.00708976,
        "meta_inclination": 73.9809,
        "meta_ra_of_asc_node": 64.5379,
        "meta_arg_of_pericenter": 239.9998,
        "meta_mean_anomaly": 272.4967,
        "meta_ephemeris_type": 0,
        "meta_classification_type": "U",
        "meta_norad_cat_id": 34481,
        "meta_element_set_no": 999,
        "meta_rev_at_epoch": 87362,
        "meta_bstar": 0.0013143423,
        "meta_mean_motion_dot": 3.638e-05,
        "meta_mean_motion_ddot": 0,
        "tle_line1": "1 34481U 93036UA  25340.69124883  .00003638  00000+0  13143-2 0  9999",
        "tle_line2": "2 34481  73.9809  64.5379 0070897 239.9998 272.4967 14.32514558873623"
      },
      "geometry": {
        "type": "Point",
        "coordinates": [
          -110.14607236299123,
          -21.842795505164
        ]
      }
    },
    {
      "type": "Feature",
      "properties": {
        "norad_id": 34482,
        "name": "COSMOS 2251 DEB",
        "group": "cosmos-2251-debris",
        "lat": 30.449212027551884,
        "lon": -116.38234767529067,
        "alt_km": 666.1088675760029,
        "timestamp": "2025-12-07T09:35:10.183653+00:00",
        "meta_object_name": "COSMOS 2251 DEB",
        "meta_object_id": "1993-036UB",
        "meta_epoch": "2025-12-06T19:00:46.715904",
        "meta_mean_motion": 14.68988747,
        "meta_eccentricity": 0.004546,
        "meta_inclination": 74.0369,
        "meta_ra_of_asc_node": 235.1055,
        "meta_arg_of_pericenter": 296.0979,
        "meta_mean_anomaly": 125.4169,
        "meta_ephemeris_type": 0,
        "meta_classification_type": "U",
        "meta_norad_cat_id": 34482,
        "meta_element_set_no": 999,
        "meta_rev_at_epoch": 88100,
        "meta_bstar": 0.0035730805,
        "meta_mean_motion_dot": 0.0002131,
        "meta_mean_motion_ddot": 0,
        "tle_line1": "1 34482U 93036UB  25340.79220736  .00021310  00000+0  35731-2 0  9999",
        "tle_line2": "2 34482  74.0369 235.1055 0045460 296.0979 125.4169 14.68988747881001"
      },
      "geometry": {
        "type": "Point",
        "coordinates": [
          -116.38234767529067,
          30.449212027551884
        ]
      }
    },
    {
      "type": "Feature",
      "properties": {
        "norad_id": 34544,
        "name": "COSMOS 2251 DEB",
        "group": "cosmos-2251-debris",
        "lat": -39.00974758009515,
        "lon": -160.84022043105338,
        "alt_km": 986.8521742415342,
        "timestamp": "2025-12-07T09:35:10.183663+00:00",
        "meta_object_name": "COSMOS 2251 DEB",
        "meta_object_id": "1993-036UE",
        "meta_epoch": "2025-12-05T17:20:31.794144",
        "meta_mean_motion": 13.54657034,
        "meta_eccentricity": 0.03845472,
        "meta_inclination": 73.9151,
        "meta_ra_of_asc_node": 215.3898,
        "meta_arg_of_pericenter": 245.121,
        "meta_mean_anomaly": 175.271,
        "meta_ephemeris_type": 0,
        "meta_classification_type": "U",
        "meta_norad_cat_id": 34544,
        "meta_element_set_no": 999,
        "meta_rev_at_epoch": 82787,
        "meta_bstar": 0.00038902379,
        "meta_mean_motion_dot": 4.03e-06,
        "meta_mean_motion_ddot": 0,
        "tle_line1": "1 34544U 93036UE  25339.72259021  .00000403  00000+0  38902-3 0  9992",
        "tle_line2": "2 34544  73.9151 215.3898 0384547 245.1210 175.2710 13.54657034827873"
      },
      "geometry": {
        "type": "Point",
        "coordinates": [
          -160.84022043105338,
          -39.00974758009515
        ]
      }
    },
    {
      "type": "Feature",
      "properties": {
        "norad_id": 34546,
        "name": "COSMOS 2251 DEB",
        "group": "cosmos-2251-debris",
        "lat": -36.886932571214096,
        "lon": -113.26586730152763,
        "alt_km": 731.6182343070759,
        "timestamp": "2025-12-07T09:35:10.183673+00:00",
        "meta_object_name": "COSMOS 2251 DEB",
        "meta_object_id": "1993-036UG",
        "meta_epoch": "2025-12-06T22:41:13.908768",
        "meta_mean_motion": 14.45370598,
        "meta_eccentricity": 0.00217879,
        "meta_inclination": 74.0317,
        "meta_ra_of_asc_node": 259.9891,
        "meta_arg_of_pericenter": 334.3342,
        "meta_mean_anomaly": 145.1769,
        "meta_ephemeris_type": 0,
        "meta_classification_type": "U",
        "meta_norad_cat_id": 34546,
        "meta_element_set_no": 999,
        "meta_rev_at_epoch": 87942,
        "meta_bstar": 0.0011696247,
        "meta_mean_motion_dot": 4.1e-05,
        "meta_mean_motion_ddot": 0,
        "tle_line1": "1 34546U 93036UG  25340.94529987  .00004100  00000+0  11696-2 0  9999",
        "tle_line2": "2 34546  74.0317 259.9891 0021787 334.3342 145.1769 14.45370598879425"
      },
      "geometry": {
        "type": "Point",
        "coordinates": [
          -113.26586730152763,
          -36.886932571214096
        ]
      }
    },
    {
      "type": "Feature",
      "properties": {
        "norad_id": 34547,
        "name": "COSMOS 2251 DEB",
        "group": "cosmos-2251-debris",
        "lat": -5.287656145922629,
        "lon": 109.60016399437595,
        "alt_km": 669.8676454231909,
        "timestamp": "2025-12-07T09:35:10.183683+00:00",
        "meta_object_name": "COSMOS 2251 DEB",
        "meta_object_id": "1993-036UH",
        "meta_epoch": "2025-12-06T15:40:13.304064",
        "meta_mean_motion": 14.72101295,
        "meta_eccentricity": 0.00182423,
        "meta_inclination": 74.0308,
        "meta_ra_of_asc_node": 112.5708,
        "meta_arg_of_pericenter": 192.7343,
        "meta_mean_anomaly": 167.3371,
        "meta_ephemeris_type": 0,
        "meta_classification_type": "U",
        "meta_norad_cat_id": 34547,
        "meta_element_set_no": 999,
        "meta_rev_at_epoch": 88432,
        "meta_bstar": 0.0038834839,
        "meta_mean_motion_dot": 0.00024558,
        "meta_mean_motion_ddot": 0,
        "tle_line1": "1 34547U 93036UH  25340.65293176  .00024558  00000+0  38835-2 0  9999",
        "tle_line2": "2 34547  74.0308 112.5708 0018242 192.7343 167.3371 14.72101295884322"
      },
      "geometry": {
        "type": "Point",
        "coordinates": [
          109.60016399437595,
          -5.287656145922629
        ]
      }
    },
    {
      "type": "Feature",
      "properties": {
        "norad_id": 34553,
        "name": "COSMOS 2251 DEB",
        "group": "cosmos-2251-debris",
        "lat": 9.226550414868608,
        "lon": 19.38319649075597,
        "alt_km": 706.6984771134375,
        "timestamp": "2025-12-07T09:35:10.183694+00:00",
        "meta_object_name": "COSMOS 2251 DEB",
        "meta_object_id": "1993-036UP",
        "meta_epoch": "2025-12-06T18:32:08.314080",
        "meta_mean_motion": 14.57640528,
        "meta_eccentricity": 0.00195783,
        "meta_inclination": 74.0243,
        "meta_ra_of_asc_node": 203.2429,
        "meta_arg_of_pericenter": 281.0089,
        "meta_mean_anomaly": 200.0882,
        "meta_ephemeris_type": 0,
        "meta_classification_type": "U",
        "meta_norad_cat_id": 34553,
        "meta_element_set_no": 999,
        "meta_rev_at_epoch": 88009,
        "meta_bstar": 0.0019356838,
        "meta_mean_motion_dot": 8.83e-05,
        "meta_mean_motion_ddot": 0,
        "tle_line1": "1 34553U 93036UP  25340.77231845  .00008830  00000+0  19357-2 0  9997",
        "tle_line2": "2 34553  74.0243 203.2429 0019578 281.0089 200.0882 14.57640528880099"
      },
      "geometry": {
        "type": "Point",
        "coordinates": [
          19.38319649075597,
          9.226550414868608
        ]
      }
    }
  ]
}